COSMOS 2493 (SKRL-756 1)
1 39490U 13078A   26068.88109627  .00005252  00000+0  40276-3 0  9992
2 39490  82.4165 358.3033 0011855 214.7485 145.2966 15.01584319663059
STARLINK-5677           
1 55463U 23015Q   26068.09048173  .00016107  00000+0  12073-2 0  9997
2 55463  43.0037 329.2658 0000205 294.5683  65.5138 15.02454137170661
